{
    "links": {
        "self": "http://www.neowsapp.com/rest/v1/neo/3646853?api_key=iIulBulltgU6a56xZRHN4H3l9WmuAYTsLGpBGhQ2"
    },
    "id": "3646853",
    "neo_reference_id": "3646853",
    "name": "(2013 QH17)",
    "designation": "2013 QH17",
    "nasa_jpl_url": "http://ssd.jpl.nasa.gov/sbdb.cgi?sstr=3646853",
    "absolute_magnitude_h": 23.4,
    "estimated_diameter": {
        "kilometers": {
            "estimated_diameter_min": 0.0555334912,
            "estimated_diameter_max": 0.1241766613
        },
        "meters": {
            "estimated_diameter_min": 55.5334911581,
            "estimated_diameter_max": 124.1766612574
        },
        "miles": {
            "estimated_diameter_min": 0.0345069009,
            "estimated_diameter_max": 0.0771597762
        },
        "feet": {
            "estimated_diameter_min": 182.1964991311,
            "estimated_diameter_max": 407.4037573197
        }
    },
    "is_potentially_hazardous_asteroid": false,
    "close_approach_data": [
        {
            "close_approach_date": "2013-09-19",
            "close_approach_date_full": "2013-Sep-19 19:56",
            "epoch_date_close_approach": 1379620560000,
            "relative_velocity": {
                "kilometers_per_second": "7.456970731",
                "kilometers_per_hour": "26845.0946315093",
                "miles_per_hour": "16680.4978281176"
            },
            "miss_distance": {
                "astronomical": "0.186369024",
                "lunar": "72.497550336",
                "kilometers": "27880409.02437888",
                "miles": "17324082.839353344"
            },
            "orbiting_body": "Earth"
        },
        {
            "close_approach_date": "2013-12-28",
            "close_approach_date_full": "2013-Dec-28 18:55",
            "epoch_date_close_approach": 1388256900000,
            "relative_velocity": {
                "kilometers_per_second": "7.4129363238",
                "kilometers_per_hour": "26686.5707657498",
                "miles_per_hour": "16581.9972627516"
            },
            "miss_distance": {
                "astronomical": "0.2272417196",
                "lunar": "88.3970289244",
                "kilometers": "33994877.227297252",
                "miles": "21123437.2022439976"
            },
            "orbiting_body": "Earth"
        }
    ],
    "orbital_data": {
        "orbit_id": "7",
        "orbit_determination_date": "2017-04-06 08:45:00",
        "first_observation_date": "2013-08-29",
        "last_observation_date": "2013-09-05",
        "data_arc_in_days": 7,
        "observations_used": 23,
        "orbit_uncertainty": "8",
        "minimum_orbit_intersection": ".136209",
        "jupiter_tisserand_invariant": "4.418",
        "epoch_osculation": "2456534.5",
        "eccentricity": ".3472290509537298",
        "semi_major_axis": "1.514975323237667",
        "inclination": "13.57078830738866",
        "ascending_node_longitude": "151.166537789089",
        "orbital_period": "681.0935463345567",
        "perihelion_distance": ".9889318795315318",
        "perihelion_argument": "255.9026484003593",
        "aphelion_distance": "2.041018766943802",
        "perihelion_time": "2456608.073969108132",
        "mean_anomaly": "321.1116137842288",
        "mean_motion": ".5285617547507434",
        "equinox": "J2000",
        "orbit_class": {
            "orbit_class_type": "APO",
            "orbit_class_description": "Near-Earth asteroid orbits which cross the Earth’s orbit similar to that of 1862 Apollo",
            "orbit_class_range": "a (semi-major axis) > 1.0 AU; q (perihelion) < 1.017 AU"
        }
    },
    "is_sentry_object": false
}